[{"OBJECT_NAME":"STARLINK-36369","OBJECT_ID":"2026-026C","EPOCH":"2026-03-09T22:00:01.999584","MEAN_MOTION":15.48557021,"ECCENTRICITY":0.00018859,"INCLINATION":97.2847,"RA_OF_ASC_NODE":123.4317,"ARG_OF_PERICENTER":70.9847,"MEAN_ANOMALY":342.6499,"EPHEMERIS_TYPE":0,"CLASSIFICATION_TYPE":"U","NORAD_CAT_ID":67723,"ELEMENT_SET_NO":999,"REV_AT_EPOCH":535,"BSTAR":-0.041406424,"MEAN_MOTION_DOT":-0.01972119,"MEAN_MOTION_DDOT":0},{"OBJECT_NAME":"ELECTRON KICK STAGE R\/B","OBJECT_ID":"2022-147B","EPOCH":"2026-03-09T22:28:20.187264","MEAN_MOTION":15.28920172,"ECCENTRICITY":0.00095089,"INCLINATION":97.642,"RA_OF_ASC_NODE":85.1135,"ARG_OF_PERICENTER":110.4683,"MEAN_ANOMALY":249.7578,"EPHEMERIS_TYPE":0,"CLASSIFICATION_TYPE":"U","NORAD_CAT_ID":54228,"ELEMENT_SET_NO":999,"REV_AT_EPOCH":18390,"BSTAR":0.00083201931,"MEAN_MOTION_DOT":0.00023374,"MEAN_MOTION_DDOT":0}]
